IRIDIUM 921 [-]         
1 24873U 97034E   23304.34422251  .00022026  00000+0  82614-3 0  9997
2 24873  86.3905  40.6238 0006198  58.4772 301.7080 15.27100744439980
IRIDIUM 26 [-]          
1 24903U 97043A   23304.69216318  .00000585  00000+0  19463-3 0  9992
2 24903  86.3999   0.0528 0001979  93.6847 266.4576 14.36060825371868
IRIDIUM 22 [-]          
1 24907U 97043E   23304.71106028  .00000591  00000+0  20090-3 0  9990
2 24907  86.4006   3.0978 0002177  91.6265 268.5181 14.34968156371482
DUMMY MASS 1 [-]        
1 24925U 97048A   23304.57609522  .00000836  00000+0  92672-4 0  9994
2 24925  86.3371  50.0293 0009249  92.3990 267.8293 14.85901331416808
DUMMY MASS 2 [-]        
1 24926U 97048B   23304.84503012  .00000825  00000+0  91956-4 0  9994
2 24926  86.3370  51.4082 0010001 100.0289 260.2064 14.85662815416876
IRIDIUM 29 [-]          
1 24944U 97051A   23304.50776585  .00000537  00000+0  18041-3 0  9991
2 24944  86.4004  33.1446 0002316  88.2325 271.9137 14.35423196367934
IRIDIUM 33 [-]          
1 24946U 97051C   23304.60492813  .00000523  00000+0  17981-3 0  9990
2 24946  86.3920  32.3779 0006884 203.8133 156.2745 14.34161261367502
IRIDIUM 28 [-]          
1 24948U 97051E   23304.52359924  .00000693  00000+0  23034-3 0  9992
2 24948  86.4012  30.9967 0001825 101.7164 258.4237 14.36364141368528
